[
    {
        "Altitude(m)": 706210.5329253407,
        "Argument of Periapsis(deg)": 0.0,
        "Eccentricity": 0.0,
        "Inclination(deg)": 45.0,
        "Latitude(deg)": 40.1734932773474,
        "Longitude(deg)": 62.91865898165879,
        "Mean Anomaly(deg)": 114.54549999999999,
        "RAAN(deg)": 40.0,
        "Satellite Name": "Constellation 1 183",
        "Satellite Number": 183,
        "Semi-Major Axis(m)": 7083131.272910544,
        "Time(s)": 0
    },
    {
        "Altitude(m)": 706205.5268069181,
        "Argument of Periapsis(deg)": 5.994800624540561e-05,
        "Eccentricity": 0.0,
        "Inclination(deg)": 45.0,
        "Latitude(deg)": 40.15009415099639,
        "Longitude(deg)": 62.98773898879797,
        "Mean Anomaly(deg)": 114.60620114024991,
        "RAAN(deg)": 39.999943410834426,
        "Satellite Name": "Constellation 1 183",
        "Satellite Number": 183,
        "Semi-Major Axis(m)": 7083131.272910544,
        "Time(s)": 1
    },
    {
        "Altitude(m)": 706200.512625117,
        "Argument of Periapsis(deg)": 0.00011989601249081122,
        "Eccentricity": 0.0,
        "Inclination(deg)": 45.0,
        "Latitude(deg)": 40.12664871830566,
        "Longitude(deg)": 63.056768769200836,
        "Mean Anomaly(deg)": 114.6669022804998,
        "RAAN(deg)": 39.99988682166886,
        "Satellite Name": "Constellation 1 183",
        "Satellite Number": 183,
        "Semi-Major Axis(m)": 7083131.272910544,
        "Time(s)": 2
    },
    {
        "Altitude(m)": 706195.4904103412,
        "Argument of Periapsis(deg)": 0.00017984401873621686,
        "Eccentricity": 0.0,
        "Inclination(deg)": 45.0,
        "Latitude(deg)": 40.10315704868205,
        "Longitude(deg)": 63.12574830007795,
        "Mean Anomaly(deg)": 114.72760342074973,
        "RAAN(deg)": 39.999830232503285,
        "Satellite Name": "Constellation 1 183",
        "Satellite Number": 183,
        "Semi-Major Axis(m)": 7083131.272910544,
        "Time(s)": 3
    },
    {
        "Altitude(m)": 706190.4601930596,
        "Argument of Periapsis(deg)": 0.00023979202498162244,
        "Eccentricity": 0.0,
        "Inclination(deg)": 45.0,
        "Latitude(deg)": 40.079619211543545,
        "Longitude(deg)": 63.194677559101,
        "Mean Anomaly(deg)": 114.78830456099958,
        "RAAN(deg)": 39.999773643337726,
        "Satellite Name": "Constellation 1 183",
        "Satellite Number": 183,
        "Semi-Major Axis(m)": 7083131.272910544,
        "Time(s)": 4
    },
    {
        "Altitude(m)": 706185.4220037885,
        "Argument of Periapsis(deg)": 0.00029974003122702807,
        "Eccentricity": 0.0,
        "Inclination(deg)": 45.0,
        "Latitude(deg)": 40.05603527631842,
        "Longitude(deg)": 63.263556524401615,
        "Mean Anomaly(deg)": 114.8490057012495,
        "RAAN(deg)": 39.99971705417215,
        "Satellite Name": "Constellation 1 183",
        "Satellite Number": 183,
        "Semi-Major Axis(m)": 7083131.272910544,
        "Time(s)": 5
    },
    {
        "Altitude(m)": 706180.375873101,
        "Argument of Periapsis(deg)": 0.00035968803747243373,
        "Eccentricity": 0.0,
        "Inclination(deg)": 45.0,
        "Latitude(deg)": 40.032405312444695,
        "Longitude(deg)": 63.332385174569964,
        "Mean Anomaly(deg)": 114.90970684149939,
        "RAAN(deg)": 39.999660465006585,
        "Satellite Name": "Constellation 1 183",
        "Satellite Number": 183,
        "Semi-Major Axis(m)": 7083131.272910544,
        "Time(s)": 6
    },
    {
        "Altitude(m)": 706175.321831621,
        "Argument of Periapsis(deg)": 0.00041963604371783933,
        "Eccentricity": 0.0,
        "Inclination(deg)": 45.0,
        "Latitude(deg)": 40.00872938936939,
        "Longitude(deg)": 63.40116332055597,
        "Mean Anomaly(deg)": 114.9704079817493,
        "RAAN(deg)": 39.99960387584101,
        "Satellite Name": "Constellation 1 183",
        "Satellite Number": 183,
        "Semi-Major Axis(m)": 7083131.272910544,
        "Time(s)": 7
    },
    {
        "Altitude(m)": 706170.2599100345,
        "Argument of Periapsis(deg)": 0.0004795840499632449,
        "Eccentricity": 0.0,
        "Inclination(deg)": 45.0,
        "Latitude(deg)": 39.985007576548405,
        "Longitude(deg)": 63.46989127805726,
        "Mean Anomaly(deg)": 115.0311091219992,
        "RAAN(deg)": 39.999547286675444,
        "Satellite Name": "Constellation 1 183",
        "Satellite Number": 183,
        "Semi-Major Axis(m)": 7083131.272910544,
        "Time(s)": 8
    },
    {
        "Altitude(m)": 706165.1901390696,
        "Argument of Periapsis(deg)": 0.0005395320562086505,
        "Eccentricity": 0.0,
        "Inclination(deg)": 45.0,
        "Latitude(deg)": 39.961239943444966,
        "Longitude(deg)": 63.538568858934404,
        "Mean Anomaly(deg)": 115.0918102622491,
        "RAAN(deg)": 39.99949069750987,
        "Satellite Name": "Constellation 1 183",
        "Satellite Number": 183,
        "Semi-Major Axis(m)": 7083131.272910544,
        "Time(s)": 9
    },
    {
        "Altitude(m)": 706160.1125495163,
        "Argument of Periapsis(deg)": 0.0005994800624540561,
        "Eccentricity": 0.0,
        "Inclination(deg)": 45.0,
        "Latitude(deg)": 39.93742655952972,
        "Longitude(deg)": 63.60719604359819,
        "Mean Anomaly(deg)": 115.15251140249897,
        "RAAN(deg)": 39.9994341083443,
        "Satellite Name": "Constellation 1 183",
        "Satellite Number": 183,
        "Semi-Major Axis(m)": 7083131.272910544,
        "Time(s)": 10
    },
    {
        "Altitude(m)": 706155.0271722199,
        "Argument of Periapsis(deg)": 0.0006594280686994618,
        "Eccentricity": 0.0,
        "Inclination(deg)": 45.0,
        "Latitude(deg)": 39.91356749427978,
        "Longitude(deg)": 63.67577281291151,
        "Mean Anomaly(deg)": 115.21321254274886,
        "RAAN(deg)": 39.99937751917873,
        "Satellite Name": "Constellation 1 183",
        "Satellite Number": 183,
        "Semi-Major Axis(m)": 7083131.272910544,
        "Time(s)": 11
    },
    {
        "Altitude(m)": 706149.9340380738,
        "Argument of Periapsis(deg)": 0.0007193760749448675,
        "Eccentricity": 0.0,
        "Inclination(deg)": 45.0,
        "Latitude(deg)": 39.88966281717825,
        "Longitude(deg)": 63.744299148187686,
        "Mean Anomaly(deg)": 115.27391368299878,
        "RAAN(deg)": 39.99932093001316,
        "Satellite Name": "Constellation 1 183",
        "Satellite Number": 183,
        "Semi-Major Axis(m)": 7083131.272910544,
        "Time(s)": 12
    },
    {
        "Altitude(m)": 706144.833178021,
        "Argument of Periapsis(deg)": 0.000779324081190273,
        "Eccentricity": 0.0,
        "Inclination(deg)": 45.0,
        "Latitude(deg)": 39.865712597713475,
        "Longitude(deg)": 63.812775031189325,
        "Mean Anomaly(deg)": 115.3346148232487,
        "RAAN(deg)": 39.999264340847596,
        "Satellite Name": "Constellation 1 183",
        "Satellite Number": 183,
        "Semi-Major Axis(m)": 7083131.272910544,
        "Time(s)": 13
    },
    {
        "Altitude(m)": 706139.7246230732,
        "Argument of Periapsis(deg)": 0.0008392720874356787,
        "Eccentricity": 0.0,
        "Inclination(deg)": 45.0,
        "Latitude(deg)": 39.84171690537861,
        "Longitude(deg)": 63.88120044412673,
        "Mean Anomaly(deg)": 115.39531596349859,
        "RAAN(deg)": 39.99920775168203,
        "Satellite Name": "Constellation 1 183",
        "Satellite Number": 183,
        "Semi-Major Axis(m)": 7083131.272910544,
        "Time(s)": 14
    },
    {
        "Altitude(m)": 706134.608404278,
        "Argument of Periapsis(deg)": 0.0008992200936810842,
        "Eccentricity": 0.0,
        "Inclination(deg)": 45.0,
        "Latitude(deg)": 39.817675809670476,
        "Longitude(deg)": 63.94957520155981,
        "Mean Anomaly(deg)": 115.4560171037485,
        "RAAN(deg)": 39.999151162516455,
        "Satellite Name": "Constellation 1 183",
        "Satellite Number": 183,
        "Semi-Major Axis(m)": 7083131.272910544,
        "Time(s)": 15
    },
    {
        "Altitude(m)": 706129.4845527436,
        "Argument of Periapsis(deg)": 0.0009591680999264898,
        "Eccentricity": 0.0,
        "Inclination(deg)": 45.0,
        "Latitude(deg)": 39.79358938009011,
        "Longitude(deg)": 64.01789962278498,
        "Mean Anomaly(deg)": 115.51671824399837,
        "RAAN(deg)": 39.99909457335089,
        "Satellite Name": "Constellation 1 183",
        "Satellite Number": 183,
        "Semi-Major Axis(m)": 7083131.272910544,
        "Time(s)": 16
    },
    {
        "Altitude(m)": 706124.3530996321,
        "Argument of Periapsis(deg)": 0.0010191161061718953,
        "Eccentricity": 0.0,
        "Inclination(deg)": 45.0,
        "Latitude(deg)": 39.76945768614065,
        "Longitude(deg)": 64.08617352325099,
        "Mean Anomaly(deg)": 115.57741938424829,
        "RAAN(deg)": 39.999037984185314,
        "Satellite Name": "Constellation 1 183",
        "Satellite Number": 183,
        "Semi-Major Axis(m)": 7083131.272910544,
        "Time(s)": 17
    },
    {
        "Altitude(m)": 706119.2140761543,
        "Argument of Periapsis(deg)": 0.001079064112417301,
        "Eccentricity": 0.0,
        "Inclination(deg)": 45.0,
        "Latitude(deg)": 39.74528079732778,
        "Longitude(deg)": 64.15439688694616,
        "Mean Anomaly(deg)": 115.63812052449818,
        "RAAN(deg)": 39.99898139501975,
        "Satellite Name": "Constellation 1 183",
        "Satellite Number": 183,
        "Semi-Major Axis(m)": 7083131.272910544,
        "Time(s)": 18
    }
]